{
    "links": {
        "self": "http://www.neowsapp.com/rest/v1/neo/3653690?api_key=iIulBulltgU6a56xZRHN4H3l9WmuAYTsLGpBGhQ2"
    },
    "id": "3653690",
    "neo_reference_id": "3653690",
    "name": "(2013 VK13)",
    "designation": "2013 VK13",
    "nasa_jpl_url": "http://ssd.jpl.nasa.gov/sbdb.cgi?sstr=3653690",
    "absolute_magnitude_h": 26.0,
    "estimated_diameter": {
        "kilometers": {
            "estimated_diameter_min": 0.0167708462,
            "estimated_diameter_max": 0.0375007522
        },
        "meters": {
            "estimated_diameter_min": 16.7708462163,
            "estimated_diameter_max": 37.5007521798
        },
        "miles": {
            "estimated_diameter_min": 0.0104209175,
            "estimated_diameter_max": 0.0233018799
        },
        "feet": {
            "estimated_diameter_min": 55.0224631002,
            "estimated_diameter_max": 123.0339677816
        }
    },
    "is_potentially_hazardous_asteroid": false,
    "close_approach_data": [
        {
            "close_approach_date": "2013-11-19",
            "close_approach_date_full": "2013-Nov-19 12:52",
            "epoch_date_close_approach": 1384865520000,
            "relative_velocity": {
                "kilometers_per_second": "10.280855908",
                "kilometers_per_hour": "37011.0812687489",
                "miles_per_hour": "22997.2465805734"
            },
            "miss_distance": {
                "astronomical": "0.0207870805",
                "lunar": "8.0861743145",
                "kilometers": "3109702.966318535",
                "miles": "1932279.822264383"
            },
            "orbiting_body": "Earth"
        }
    ],
    "orbital_data": {
        "orbit_id": "12",
        "orbit_determination_date": "2018-02-10 07:05:43",
        "first_observation_date": "2013-11-10",
        "last_observation_date": "2013-11-19",
        "data_arc_in_days": 9,
        "observations_used": 35,
        "orbit_uncertainty": "8",
        "minimum_orbit_intersection": ".00615439",
        "jupiter_tisserand_invariant": "3.903",
        "epoch_osculation": "2456608.5",
        "eccentricity": ".4905255076896688",
        "semi_major_axis": "1.804914266045701",
        "inclination": "6.497531665977684",
        "ascending_node_longitude": "237.4728921159113",
        "orbital_period": "885.693165218368",
        "perihelion_distance": ".9195577793573076",
        "perihelion_argument": "221.2964077754738",
        "aphelion_distance": "2.690270752734095",
        "perihelion_time": "2456647.480769667911",
        "mean_anomaly": "344.1558254805003",
        "mean_motion": ".4064613052661887",
        "equinox": "J2000",
        "orbit_class": {
            "orbit_class_type": "APO",
            "orbit_class_description": "Near-Earth asteroid orbits which cross the Earth’s orbit similar to that of 1862 Apollo",
            "orbit_class_range": "a (semi-major axis) > 1.0 AU; q (perihelion) < 1.017 AU"
        }
    },
    "is_sentry_object": false
}